{"type": "FeatureCollection", "features": [ {"type": "Feature", "properties": {"norad_id": 66667, "name": "PELICAN-5", "group": "last-30-days", "lat": 45.067815012781786, "lon": 64.85753921843576, "alt_km": 510.6944524676128, "timestamp": "2025-12-26T20:30:44.699430+00:00", "meta": {"OBJECT_NAME": "PELICAN-5", "OBJECT_ID": "2025-276B", "EPOCH": "2025-12-26T13:58:57.186912", "MEAN_MOTION": 15.17624853, "ECCENTRICITY": 0.00024725, "INCLINATION": 97.4406, "RA_OF_ASC_NODE": 72.1175, "ARG_OF_PERICENTER": 197.5491, "MEAN_ANOMALY": 162.5657, "EPHEMERIS_TYPE": 0, "CLASSIFICATION_TYPE": "U", "NORAD_CAT_ID": 66667, "ELEMENT_SET_NO": 999, "REV_AT_EPOCH": 422, "BSTAR": 0.0002382227, "MEAN_MOTION_DOT": 4.725e-05, "MEAN_MOTION_DDOT": 0}, "tle": {"line1": "1 66667U 25276B   25360.58260633  .00004725  00000+0  23822-3 0  9999", "line2": "2 66667  97.4406  72.1175 0002472 197.5491 162.5657 15.17624853  4229"}}, "geometry": {"type": "Point", "coordinates": [64.85753921843576, 45.067815012781786]}}, {"type": "Feature", "properties": {"norad_id": 66668, "name": "TRANSPORTER-15C", "group": "last-30-days", "lat": -13.107801442903881, "lon": 74.05245368159044, "alt_km": 504.24315752178427, "timestamp": "2025-12-26T20:30:44.699441+00:00", "meta": {"OBJECT_NAME": "TRANSPORTER-15C", "OBJECT_ID": "2025-276C", "EPOCH": "2025-12-26T12:40:51.383136", "MEAN_MOTION": 15.21988406, "ECCENTRICITY": 0.00161782, "INCLINATION": 97.4332, "RA_OF_ASC_NODE": 71.9879, "ARG_OF_PERICENTER": 258.9437, "MEAN_ANOMALY": 100.9979, "EPHEMERIS_TYPE": 0, "CLASSIFICATION_TYPE": "U", "NORAD_CAT_ID": 66668, "ELEMENT_SET_NO": 999, "REV_AT_EPOCH": 421, "BSTAR": 0.00071782067, "MEAN_MOTION_DOT": 0.00016393, "MEAN_MOTION_DDOT": 0}, "tle": {"line1": "1 66668U 25276C   25360.52837249  .00016393  00000+0  71782-3 0  9999", "line2": "2 66668  97.4332  71.9879 0016178 258.9437 100.9979 15.21988406  4210"}}, "geometry": {"type": "Point", "coordinates": [74.05245368159044, -13.107801442903881]}}, {"type": "Feature", "properties": {"norad_id": 66669, "name": "TRANSPORTER-15D", "group": "last-30-days", "lat": -26.22199548397537, "lon": 75.9953369583953, "alt_km": 517.9873601542586, "timestamp": "2025-12-26T20:30:44.699450+00:00", "meta": {"OBJECT_NAME": "TRANSPORTER-15D", "OBJECT_ID": "2025-276D", "EPOCH": "2025-12-26T04:48:12.178080", "MEAN_MOTION": 15.17501415, "ECCENTRICITY": 0.00074697, "INCLINATION": 97.4283, "RA_OF_ASC_NODE": 71.6689, "ARG_OF_PERICENTER": 258.0077, "MEAN_ANOMALY": 102.032, "EPHEMERIS_TYPE": 0, "CLASSIFICATION_TYPE": "U", "NORAD_CAT_ID": 66669, "ELEMENT_SET_NO": 999, "REV_AT_EPOCH": 416, "BSTAR": 0.0012000291, "MEAN_MOTION_DOT": 0.00024063, "MEAN_MOTION_DDOT": 0}, "tle": {"line1": "1 66669U 25276D   25360.20014095  .00024063  00000+0  12000-2 0  9991", "line2": "2 66669  97.4283  71.6689 0007469 258.0077 102.0320 15.17501415  4169"}}, "geometry": {"type": "Point", "coordinates": [75.9953369583953, -26.22199548397537]}}, {"type": "Feature", "properties": {"norad_id": 66670, "name": "HUNITY", "group": "last-30-days", "lat": -28.873603223349097, "lon": 76.43834627738049, "alt_km": 514.1524793285471, "timestamp": "2025-12-26T20:30:44.699459+00:00", "meta": {"OBJECT_NAME": "HUNITY", "OBJECT_ID": "2025-276E", "EPOCH": "2025-12-26T14:18:51.745536", "MEAN_MOTION": 15.18293295, "ECCENTRICITY": 0.00109612, "INCLINATION": 97.4294, "RA_OF_ASC_NODE": 72.0583, "ARG_OF_PERICENTER": 254.0643, "MEAN_ANOMALY": 105.9383, "EPHEMERIS_TYPE": 0, "CLASSIFICATION_TYPE": "U", "NORAD_CAT_ID": 66670, "ELEMENT_SET_NO": 999, "REV_AT_EPOCH": 422, "BSTAR": 0.036265222, "MEAN_MOTION_DOT": 0.00805362, "MEAN_MOTION_DDOT": 0}, "tle": {"line1": "1 66670U 25276E   25360.59643224  .00805362  00000+0  36265-1 0  9994", "line2": "2 66670  97.4294  72.0583 0010961 254.0643 105.9383 15.18293295  4220"}}, "geometry": {"type": "Point", "coordinates": [76.43834627738049, -28.873603223349097]}}, {"type": "Feature", "properties": {"norad_id": 66671, "name": "TRANSPORTER-15F", "group": "last-30-days", "lat": -21.95271320180027, "lon": 75.37717902941331, "alt_km": 520.5130763139532, "timestamp": "2025-12-26T20:30:44.699469+00:00", "meta": {"OBJECT_NAME": "TRANSPORTER-15F", "OBJECT_ID": "2025-276F", "EPOCH": "2025-12-26T14:16:42.377088", "MEAN_MOTION": 15.17209292, "ECCENTRICITY": 0.00051754, "INCLINATION": 97.4417, "RA_OF_ASC_NODE": 72.1021, "ARG_OF_PERICENTER": 235.5898, "MEAN_ANOMALY": 124.4847, "EPHEMERIS_TYPE": 0, "CLASSIFICATION_TYPE": "U", "NORAD_CAT_ID": 66671, "ELEMENT_SET_NO": 999, "REV_AT_EPOCH": 422, "BSTAR": 0.00067350289, "MEAN_MOTION_DOT": 0.00013339, "MEAN_MOTION_DDOT": 0}, "tle": {"line1": "1 66671U 25276F   25360.59493492  .00013339  00000+0  67350-3 0  9991", "line2": "2 66671  97.4417  72.1021 0005175 235.5898 124.4847 15.17209292  4227"}}, "geometry": {"type": "Point", "coordinates": [75.37717902941331, -21.95271320180027]}}, {"type": "Feature", "properties": {"norad_id": 66672, "name": "TRANSPORTER-15G", "group": "last-30-days", "lat": -55.09586356120897, "lon": 83.12699204839892, "alt_km": 521.78757649623, "timestamp": "2025-12-26T20:30:44.699478+00:00", "meta": {"OBJECT_NAME": "TRANSPORTER-15G", "OBJECT_ID": "2025-276G", "EPOCH": "2025-12-26T14:25:27.793632", "MEAN_MOTION": 15.16661959, "ECCENTRICITY": 0.00055441, "INCLINATION": 97.4389, "RA_OF_ASC_NODE": 72.0849, "ARG_OF_PERICENTER": 233.6296, "MEAN_ANOMALY": 126.4426, "EPHEMERIS_TYPE": 0, "CLASSIFICATION_TYPE": "U", "NORAD_CAT_ID": 66672, "ELEMENT_SET_NO": 999, "REV_AT_EPOCH": 422, "BSTAR": 0.00047288184, "MEAN_MOTION_DOT": 9.196e-05, "MEAN_MOTION_DDOT": 0}, "tle": {"line1": "1 66672U 25276G   25360.60101613  .00009196  00000+0  47288-3 0  9999", "line2": "2 66672  97.4389  72.0849 0005544 233.6296 126.4426 15.16661959  4220"}}, "geometry": {"type": "Point", "coordinates": [83.12699204839892, -55.09586356120897]}}, {"type": "Feature", "properties": {"norad_id": 66673, "name": "TRANSPORTER-15H", "group": "last-30-days", "lat": 5.85999697613522, "lon": 71.57955659285733, "alt_km": 511.2876488844713, "timestamp": "2025-12-26T20:30:44.699489+00:00", "meta": {"OBJECT_NAME": "TRANSPORTER-15H", "OBJECT_ID": "2025-276H", "EPOCH": "2025-12-26T11:00:59.464512", "MEAN_MOTION": 15.21568499, "ECCENTRICITY": 0.00228952, "INCLINATION": 97.4356, "RA_OF_ASC_NODE": 71.9567, "ARG_OF_PERICENTER": 247.0986, "MEAN_ANOMALY": 112.7833, "EPHEMERIS_TYPE": 0, "CLASSIFICATION_TYPE": "U", "NORAD_CAT_ID": 66673, "ELEMENT_SET_NO": 999, "REV_AT_EPOCH": 420, "BSTAR": 0.00074051144, "MEAN_MOTION_DOT": 0.00016767, "MEAN_MOTION_DDOT": 0}, "tle": {"line1": "1 66673U 25276H   25360.45902158  .00016767  00000+0  74051-3 0  9996", "line2": "2 66673  97.4356  71.9567 0022895 247.0986 112.7833 15.21568499  4202"}}, "geometry": {"type": "Point", "coordinates": [71.57955659285733, 5.85999697613522]}}, {"type": "Feature", "properties": {"norad_id": 66674, "name": "TRANSPORTER-15J", "group": "last-30-days", "lat": -44.034617780248155, "lon": 79.58629216998084, "alt_km": 521.6244138456386, "timestamp": "2025-12-26T20:30:44.699498+00:00", "meta": {"OBJECT_NAME": "TRANSPORTER-15J", "OBJECT_ID": "2025-276J", "EPOCH": "2025-12-26T14:22:30.372096", "MEAN_MOTION": 15.1678084, "ECCENTRICITY": 0.00051034, "INCLINATION": 97.4367, "RA_OF_ASC_NODE": 72.0802, "ARG_OF_PERICENTER": 237.7625, "MEAN_ANOMALY": 122.3114, "EPHEMERIS_TYPE": 0, "CLASSIFICATION_TYPE": "U", "NORAD_CAT_ID": 66674, "ELEMENT_SET_NO": 999, "REV_AT_EPOCH": 422, "BSTAR": 0.00028443574, "MEAN_MOTION_DOT": 5.521e-05, "MEAN_MOTION_DDOT": 0}, "tle": {"line1": "1 66674U 25276J   25360.59896264  .00005521  00000+0  28444-3 0  9993", "line2": "2 66674  97.4367  72.0802 0005103 237.7625 122.3114 15.16780840  4229"}}, "geometry": {"type": "Point", "coordinates": [79.58629216998084, -44.034617780248155]}}, {"type": "Feature", "properties": {"norad_id": 66675, "name": "TRANSPORTER-15K", "group": "last-30-days", "lat": -29.102867314855338, "lon": 76.51228865244063, "alt_km": 520.4206011580736, "timestamp": "2025-12-26T20:30:44.699507+00:00", "meta": {"OBJECT_NAME": "TRANSPORTER-15K", "OBJECT_ID": "2025-276K", "EPOCH": "2025-12-25T01:53:59.672832", "MEAN_MOTION": 15.17040244, "ECCENTRICITY": 0.00054509, "INCLINATION": 97.4384, "RA_OF_ASC_NODE": 70.5991, "ARG_OF_PERICENTER": 251.3095, "MEAN_ANOMALY": 108.7547, "EPHEMERIS_TYPE": 0, "CLASSIFICATION_TYPE": "U", "NORAD_CAT_ID": 66675, "ELEMENT_SET_NO": 999, "REV_AT_EPOCH": 399, "BSTAR": 0.00023807205, "MEAN_MOTION_DOT": 4.644e-05, "MEAN_MOTION_DDOT": 0}, "tle": {"line1": "1 66675U 25276K   25359.07916288  .00004644  00000+0  23807-3 0  9997", "line2": "2 66675  97.4384  70.5991 0005450 251.3095 108.7547 15.17040244  3998"}}, "geometry": {"type": "Point", "coordinates": [76.51228865244063, -29.102867314855338]}}, {"type": "Feature", "properties": {"norad_id": 66676, "name": "TRANSPORTER-15L", "group": "last-30-days", "lat": -41.444577690944136, "lon": 78.96428008660716, "alt_km": 521.4332571519353, "timestamp": "2025-12-26T20:30:44.699516+00:00", "meta": {"OBJECT_NAME": "TRANSPORTER-15L", "OBJECT_ID": "2025-276L", "EPOCH": "2025-12-26T14:21:49.783104", "MEAN_MOTION": 15.16850629, "ECCENTRICITY": 0.000421, "INCLINATION": 97.4384, "RA_OF_ASC_NODE": 72.0883, "ARG_OF_PERICENTER": 239.0906, "MEAN_ANOMALY": 120.9913, "EPHEMERIS_TYPE": 0, "CLASSIFICATION_TYPE": "U", "NORAD_CAT_ID": 66676, "ELEMENT_SET_NO": 999, "REV_AT_EPOCH": 422, "BSTAR": 0.0021971776, "MEAN_MOTION_DOT": 0.00043395, "MEAN_MOTION_DDOT": 0}, "tle": {"line1": "1 66676U 25276L   25360.59849286  .00043395  00000+0  21972-2 0  9996", "line2": "2 66676  97.4384  72.0883 0004210 239.0906 120.9913 15.16850629  4228"}}, "geometry": {"type": "Point", "coordinates": [78.96428008660716, -41.444577690944136]}}]}